ID,MainActivityType,InstallationOrAircraftOperatorID,InstallationNameOrAircraftOperatorCode,LatestComplianceCode,MainActivityTypeCode,PermitOrPlanID,AccountHolderName,PermitOrPlanDate,NationalAdministratorCode,NationalAdministrator,AMOwnershipFirstYear,AMOwnershipLastYear,FirstYearOfEmissions,LastYearOfEmissions,Address1,ZipCode,City,2005,2006,2007,2008,2009,2010,2011,2012,2013,2014,2015,2016,2017,2018,2019,2020,2021,2022,2023,2024,2025,2026,2027,2028,2029,2030,Latitude,Longitude,Link
BE11,Production of pig iron or steel,11,ArcelorMittal Gent,A,24,VL201,ArcelorMittal Belgium,2005-04-01,BE,Belgium,,,2005,2012.0,John Kennedylaan 51,9042,Gent,4896453.0,5238916.0,4686947.0,4556264.0,3415187.0,4386583.0,4017146.0,3777669.0,,,,,,,,,,,,,,,,,,,51.1836104,3.8313483,https://ec.europa.eu/clima/ets/ohaDetails.do?accountID=94048&action=all&languageCode=en&registryCode=BE
BE105,Production or processing of ferrous metals,105,Eurogal,A,25,WAI150P046,ArcelorMittal Belgium,2005-04-01,BE,Belgium,,,2005,,Chaussée de Ramioul 50,4400,Ivoz Ramet,31271.0,28348.0,26095.0,23765.0,19263.0,21822.0,23321.0,20950.0,23080.0,24091.0,27799.0,27717.0,27974.0,28978.0,26754.0,24295.0,27378.0,,,,,,,,,,50.5849529,5.4374918,https://ec.europa.eu/clima/ets/ohaDetails.do?accountID=94172&action=all&languageCode=en&registryCode=BE
BE106,Production or processing of ferrous metals,106,Ferbatil (API),A,25,WAI146P042,LIBERTY LIEGE - DUDELANGE (BE),2005-04-01,BE,Belgium,,2018.0,2005,,"rue des Martyrs, 143",4420,Tilleur,13225.0,13152.0,12153.0,8518.0,9550.0,10479.0,8719.0,10981.0,13677.0,13740.0,38030.0,40672.0,38644.0,37780.0,,,,,,,,,,,,,50.61645859999999,5.5315613,https://ec.europa.eu/clima/ets/ohaDetails.do?accountID=94173&action=all&languageCode=en&registryCode=BE
BE107,Production or processing of ferrous metals,107,Ramet - Galvanisation,A,25,WAI148P044,ArcelorMittal Belgium,2005-04-01,BE,Belgium,,,2005,2017.0,rue Sompré,4400,Ivoz Ramet,9396.0,10940.0,10472.0,10755.0,8373.0,11441.0,10433.0,10333.0,10504.0,11591.0,10926.0,12174.0,,,,,,,,,,,,,,,50.5860208,5.4470021,https://ec.europa.eu/clima/ets/ohaDetails.do?accountID=94174&action=all&languageCode=en&registryCode=BE
BE108,Production or processing of ferrous metals,108,Kessales,A,25,WAI147P041,ArcelorMittal Belgium,2005-04-01,BE,Belgium,,,2005,,rue Gustave Baivy,4101,Jemeppe-sur-Meuse,22826.0,24453.0,26469.0,27209.0,21965.0,27201.0,28589.0,21169.0,25130.0,26432.0,24934.0,24705.0,31064.0,32031.0,27387.0,24445.0,27820.0,,,,,,,,,,50.6126867,5.4974708,https://ec.europa.eu/clima/ets/ohaDetails.do?accountID=94175&action=all&languageCode=en&registryCode=BE
BE109,Production or processing of ferrous metals,109,ARCELORMITTAL - site de Ramet - IVOZ-RAMET,A,25,WAI149P045,ArcelorMittal Belgium,2005-04-01,BE,Belgium,,,2005,,rue Sompré,4400,Ivoz Ramet,24389.0,26957.0,20182.0,21839.0,13568.0,19331.0,15741.0,7395.0,12535.0,11503.0,12256.0,12810.0,30412.0,30290.0,30560.0,30409.0,33469.0,,,,,,,,,,50.5860208,5.4470021,https://ec.europa.eu/clima/ets/ohaDetails.do?accountID=94176&action=all&languageCode=en&registryCode=BE
BE110,Production of pig iron or steel,110,ArcelorMittal Liège Upstream Aciérie LD+CC Chertal,A,24,WAI007P064,ArcelorMittal Belgium,2005-04-01,BE,Belgium,,,2005,2012.0,Pont de Wandre,4683,Vivegnis,261477.0,256117.0,286345.0,342233.0,61563.0,161045.0,157159.0,3170.0,,,,,,,,,,,,,,,,,,,50.6742315,5.6432623,https://ec.europa.eu/clima/ets/ohaDetails.do?accountID=94177&action=all&languageCode=en&registryCode=BE
BE111,Production of pig iron or steel,111,ArcelorMittal Liège Upstream Agglomération Seraing,A,24,WAI013P035,ArcelorMittal Belgium,2005-04-01,BE,Belgium,,,2005,2012.0,Place des hauts-Fourneaux,4102,Ougrée,627482.0,577765.0,720506.0,736849.0,90713.0,395569.0,320237.0,0.0,,,,,,,,,,,,,,,,,,,50.6039503,5.5422622,https://ec.europa.eu/clima/ets/ohaDetails.do?accountID=94178&action=all&languageCode=en&registryCode=BE
BE112,Combustion of fuels,112,ArcelorMittal Liège Upstream Energie Ougrée,A,20,WAI010P038,ArcelorMittal Belgium,2005-04-01,BE,Belgium,,,2005,2015.0,Place des Hauts-Fourneaux,4102,Ougrée,514999.0,537927.0,521301.0,562203.0,186920.0,422486.0,360501.0,79392.0,13534.0,,,,,,,,,,,,,,,,,,50.6039503,5.5422622,https://ec.europa.eu/clima/ets/ohaDetails.do?accountID=94179&action=all&languageCode=en&registryCode=BE
BE113,Combustion of fuels,113,ArcelorMittal Liège Upstream Energie Seraing,A,20,WAI012P039,ArcelorMittal Belgium,2005-04-01,BE,Belgium,,,2005,2015.0,Rue Ferrer et Rue de la Vieille Espérance,4100,Seraing,846207.0,735901.0,847936.0,1279867.0,275462.0,402647.0,400023.0,24216.0,22300.0,45946.0,2720.0,,,,,,,,,,,,,,,,50.603147,5.5044998,https://ec.europa.eu/clima/ets/ohaDetails.do?accountID=94180&action=all&languageCode=en&registryCode=BE
BE114,Production of pig iron or steel,114,ArcelorMittal Liège Upstream Cokerie Seraing,A,24,WAI005P034,ArcelorMittal Belgium,2005-04-01,BE,Belgium,,,2005,2014.0,place des Hauts-Fourneaux,4102,Ougrée,136229.0,135465.0,128978.0,118196.0,79700.0,100633.0,83898.0,63815.0,129274.0,57709.0,,,,,,,,,,,,,,,,,50.6039503,5.5422622,https://ec.europa.eu/clima/ets/ohaDetails.do?accountID=94181&action=all&languageCode=en&registryCode=BE
BE115,Production or processing of ferrous metals,115,Galva prépeint - Flémalle,A,25,WAI085P043,LIBERTY LIEGE - DUDELANGE (BE),2005-04-01,BE,Belgium,,2018.0,2005,,quai de Halage 10,4400,Flémalle,38166.0,47974.0,47293.0,44470.0,28335.0,36470.0,32705.0,24694.0,23721.0,17639.0,19925.0,27992.0,30399.0,38144.0,,,,,,,,,,,,,50.593135,5.4584395,https://ec.europa.eu/clima/ets/ohaDetails.do?accountID=94182&action=all&languageCode=en&registryCode=BE
BE116,Installations for the production of pig iron or steel (primary or secondary fusion) including continuous casting,116,ArcelorMittal Liège Upstream HF6 Seraing,A,5,WAI011P037,ArcelorMittal Belgium,2005-04-01,BE,Belgium,,,2005,2012.0,Rue Ferrer et Rue de la Vieille Espérance,4100,Seraing,143356.0,,,318185.0,166.0,,,,,,,,,,,,,,,,,,,,,,50.603147,5.5044998,https://ec.europa.eu/clima/ets/ohaDetails.do?accountID=94183&action=all&languageCode=en&registryCode=BE
BE117,Production of pig iron or steel,117,ARCELORMITTAL LIEGE - HFB OUGREE et HF SERAING  6,A,24,WAI309P146,ArcelorMittal Belgium,2005-04-01,BE,Belgium,,,2005,2012.0,place des Hauts-Fourneaux,4102,Ougrée,502029.0,607901.0,665542.0,501589.0,151190.0,391465.0,339944.0,4670.0,,,,,,,,,,,,,,,,,,,50.6039503,5.5422622,https://ec.europa.eu/clima/ets/ohaDetails.do?accountID=94184&action=all&languageCode=en&registryCode=BE
BE118,Production of pig iron or steel,118,ArcelorMittal Liège Upstream Train à bandes Cherta,A,24,WAI008P040,ArcelorMittal Belgium,2005-04-01,BE,Belgium,,,2005,2013.0,Pont de Wandre,4683,Vivegnis,143752.0,132800.0,125011.0,163999.0,52847.0,130195.0,142255.0,98639.0,140.0,,,,,,,,,,,,,,,,,,50.6742315,5.6432623,https://ec.europa.eu/clima/ets/ohaDetails.do?accountID=94185&action=all&languageCode=en&registryCode=BE
BE203912,Production of pig iron or steel,203912,ArcelorMittal Gent 1,A,24,VL201A,ArcelorMittal Belgium,2013-01-01,BE,Belgium,,,2013,2020.0,J. Kennedylaan 51,9042,Gent,,,,,,,,,4053871.0,4053039.0,3987758.0,4528865.0,4373253.0,4461978.0,4329659.0,3462111.0,,,,,,,,,,,51.1836104,3.8313483,https://ec.europa.eu/clima/ets/ohaDetails.do?accountID=109273&action=all&languageCode=en&registryCode=BE
BE203913,Production of pig iron or steel,203913,ArcelorMittal Gent 2,A,24,VL201B,ArcelorMittal Belgium,2013-01-01,BE,Belgium,,,2013,2020.0,J. Kennedylaan 51,9042,Gent,,,,,,,,,,,,,,,,,,,,,,,,,,,51.1836104,3.8313483,https://ec.europa.eu/clima/ets/ohaDetails.do?accountID=109272&action=all&languageCode=en&registryCode=BE
BE215060,Production of pig iron or steel,215060,ArcelorMittal Gent,A,24,VL201,ArcelorMittal Belgium,2021-01-01,BE,Belgium,,,2021,,J. Kennedylaan 51,9042,Gent,,,,,,,,,,,,,,,,,3985551.0,,,,,,,,,,51.1836104,3.8313483,https://ec.europa.eu/clima/ets/ohaDetails.do?accountID=1547625&action=all&languageCode=en&registryCode=BE
CZ172,Installations for the production of pig iron or steel (primary or secondary fusion) including continuous casting,172,ArcelorMittal Ostrava - závod 12 - Vysoké pece,A,5,CZ-0268-05,Liberty Ostrava a.s.,2005-04-08,CZ,Czech Republic,,2018.0,2005,2011.0,Vratimovská 142,70702,Ostrava-Kunčice,1867641.0,1960096.0,2087275.0,,1167627.0,,,,,,,,,,,,,,,,,,,,,,49.7948034,18.30363,https://ec.europa.eu/clima/ets/ohaDetails.do?accountID=96256&action=all&languageCode=en&registryCode=CZ
CZ4,Combustion installations with a rated thermal input exceeding 20 MW,4,ArcelorMittal Tubular Products Karviná,A,1,CZ-0021-05,ArcelorMittal Tubular Products Karviná a.s.,2005-04-10,CZ,Czech Republic,,,2005,,Rudé armády 471,73323,Karviná,12112.0,11835.0,10433.0,9547.0,7577.0,8811.0,7855.0,8352.0,7984.0,6730.0,5760.0,5780.0,4996.0,5430.0,3981.0,3843.0,4581.0,,,,,,,,,,49.87296689999999,18.5469583,https://ec.europa.eu/clima/ets/ohaDetails.do?accountID=96452&action=all&languageCode=en&registryCode=CZ
CZ24,Production of pig iron or steel,24,ArcelorMittal Frýdek-Místek,A,24,CZ-0053-05,Liberty Ostrava a.s.,2005-03-16,CZ,Czech Republic,,2017.0,2005,2017.0,Křižíkova 1377,73805,Frýdek-Místek,54932.0,49934.0,45403.0,39056.0,39746.0,47559.0,38044.0,40284.0,50946.0,43716.0,43598.0,46437.0,12488.0,,,,,,,,,,,,,,49.69273949999999,18.332284,https://ec.europa.eu/clima/ets/ohaDetails.do?accountID=96485&action=all&languageCode=en&registryCode=CZ
FR485,Production of pig iron or steel,485,ArcelorMittal France- Florange,A,24,6201364,ARCELORMITTAL FRANCE,1996-04-09,FR,France,,,2005,,17 Allée des Tilleuls,57190,Florance,4353850.0,4737538.0,4321829.0,4154865.0,1657210.0,3095678.0,2472037.0,280855.0,530710.0,443623.0,245342.0,423646.0,255680.0,387818.0,324479.0,255222.0,271332.0,,,,,,,,,,49.3258346,6.1317195,https://ec.europa.eu/clima/ets/ohaDetails.do?accountID=94399&action=all&languageCode=en&registryCode=FR
FR481,Installations for the production of pig iron or steel (primary or secondary fusion) including continuous casting,481,ARCELORMITTAL GANDRANGE,A,5,6201286,BERSILLON,1993-08-26,FR,France,,,2005,2010.0,Site Industriel de Gandrange,57175,Gandrange,208249.0,236087.0,237800.0,179001.0,26110.0,23405.0,,,,,,,,,,,,,,,,,,,,,49.2713699,6.1326556,https://ec.europa.eu/clima/ets/ohaDetails.do?accountID=94415&action=all&languageCode=en&registryCode=FR
FR34,Combustion of fuels,34,ArcelorMittal France- Montataire,A,20,5101363,ARCELORMITTAL FRANCE,1984-10-19,FR,France,,,2005,,Route de Saint Leu,60160,Montataire,70993.0,71407.0,67830.0,61236.0,44905.0,54785.0,53921.0,48986.0,54897.0,60455.0,60906.0,68857.0,68912.0,65047.0,59828.0,42994.0,57160.0,,,,,,,,,,49.248517,2.4422248,https://ec.europa.eu/clima/ets/ohaDetails.do?accountID=94667&action=all&languageCode=en&registryCode=FR
FR956,Combustion of fuels,956,ArcelorMittal France- Dunkerque,A,20,7000956,ARCELORMITTAL FRANCE,1986-03-31,FR,France,,,2005,,Site de Dunkerque - Port 3031,59381,DUNKERQUE CEDEX 1,11534467.0,11578949.0,12059456.0,11261849.0,9162850.0,10174067.0,10671502.0,11229769.0,7859086.0,7731790.0,7213770.0,7280824.0,8186864.0,8052937.0,7467043.0,5851655.0,7274573.0,,,,,,,,,,51.0418464,2.3733285,https://ec.europa.eu/clima/ets/ohaDetails.do?accountID=95062&action=all&languageCode=en&registryCode=FR
FR955,Production of pig iron or steel,955,ArcelorMittal France- Mardyck,A,24,7000955,ARCELORMITTAL FRANCE,2003-10-27,FR,France,,,2005,,Site de Mardyck - 3081 Route de Spycker,59792,GRANDE SYNTHE CEDEX,29108.0,27512.0,25334.0,22891.0,20257.0,15751.0,16211.0,16294.0,60731.0,65487.0,65007.0,67076.0,69536.0,63969.0,67452.0,59567.0,67840.0,,,,,,,,,,50.997345,2.29026,https://ec.europa.eu/clima/ets/ohaDetails.do?accountID=95066&action=all&languageCode=en&registryCode=FR
FR628,Production of pig iron or steel,628,ARCELORMITTAL MEDITERRANEE,A,24,6401052,ARCELORMITTAL MEDITERRANEE,2005-01-01,FR,France,,,2005,,Zone Industrielle,13270,Fos sur Mer,8494864.0,8725948.0,7950830.0,6462343.0,4726806.0,6133536.0,5429074.0,7140687.0,7988487.0,7916572.0,7861098.0,7237403.0,7934947.0,7460796.0,7659332.0,5802758.0,6902092.0,,,,,,,,,,43.4745483,4.914323899999999,https://ec.europa.eu/clima/ets/ohaDetails.do?accountID=95098&action=all&languageCode=en&registryCode=FR
FR555,Combustion of fuels,555,ARCELORMITTAL FRANCE - Basse Indre,A,20,6301117,ARCELORMITTAL FRANCE,1974-07-16,FR,France,,,2005,,"Route des Sables, 5 -",44610,INDRE,21607.0,16732.0,18734.0,12781.0,13428.0,10152.0,6125.0,11574.0,20095.0,20167.0,19681.0,19593.0,18499.0,18842.0,18382.0,16474.0,24352.0,,,,,,,,,,46.6707535,0.9812966999999998,https://ec.europa.eu/clima/ets/ohaDetails.do?accountID=95450&action=all&languageCode=en&registryCode=FR
FR206065,Production or processing of ferrous metals,206065,ARCELORMITTAL GANDRANGE AMNEVILLE,A,25,6201286,ARCELORMITTAL GANDRANGE,2010-01-01,FR,France,,,2013,,Rue de l'Usine,57360,Amneville,,,,,,,,,20395.0,27623.0,23333.0,26947.0,27080.0,24146.0,19546.0,16649.0,25758.0,,,,,,,,,,49.2592378,6.1459908,https://ec.europa.eu/clima/ets/ohaDetails.do?accountID=111452&action=all&languageCode=en&registryCode=FR
FR206303,Production or processing of ferrous metals,206303,Arcelormittal Construction France- Site 1,A,25,6200776,ARCELORMITTAL CONSTRUCTION France,2003-12-11,FR,France,,,2013,,Zone Industrielle - Site 1,55800,Contrisson,,,,,,,,,19164.0,23005.0,25096.0,25030.0,25328.0,24636.0,24936.0,25168.0,27315.0,,,,,,,,,,48.80293899999999,4.954217,https://ec.europa.eu/clima/ets/ohaDetails.do?accountID=111782&action=all&languageCode=en&registryCode=FR
FR206305,Production or processing of ferrous metals,206305,ARCELORMITTAL CONSTRUCTION France- Site 2,A,25,6204558,ARCELORMITTAL CONSTRUCTION France,2009-05-19,FR,France,,,2013,,Zone Industrielle- Site 2,55800,Contrisson,,,,,,,,,10875.0,12229.0,12276.0,12101.0,13367.0,13321.0,13187.0,11673.0,12106.0,,,,,,,,,,48.8105888,4.9585723,https://ec.europa.eu/clima/ets/ohaDetails.do?accountID=111783&action=all&languageCode=en&registryCode=FR
FR207242,Combustion of fuels,207242,ARCELORMITTAL ATLANTIQUE ET LORRAINE Basse-Indre,C,20,6301117,ARCELORMITTAL ATLANTIQUE ET LORRAINE,1974-07-16,FR,France,,,2015,2015.0,Route des Sables 5 - RD 107,44610,INDRE,,,,,,,,,,,,,,,,,,,,,,,,,,,46.6613966,1.4482662,https://ec.europa.eu/clima/ets/ohaDetails.do?accountID=112909&action=all&languageCode=en&registryCode=FR
DE4150,Production or processing of ferrous metals,4150,Kaltwalzwerk,A,25,14225-0016,ArcelorMittal Eisenhüttenstadt GmbH,2011-01-01,DE,Germany,,,2011,,Werkstrasse 1,15890,Eisenhüttenstadt,,,,,,,19443.0,20087.0,22833.0,21569.0,21117.0,23290.0,25353.0,24831.0,25659.0,23502.0,24300.0,,,,,,,,,,52.16117939999999,14.6288292,https://ec.europa.eu/clima/ets/ohaDetails.do?accountID=103473&action=all&languageCode=en&registryCode=DE
DE1228,Combustion of fuels,1228,Block 4 Bremen,A,20,14310-0672,ArcelorMittal Bremen GmbH,2005-01-01,DE,Germany,,,2005,,"Auf den Delben 35, 28237 Bremen",28215,Bremen,788279.0,1533072.0,1268741.0,988054.0,623513.0,1012654.0,928296.0,237244.0,2185868.0,2713278.0,2515126.0,2845273.0,2322631.0,2481393.0,2463056.0,1751452.0,2519316.0,,,,,,,,,,53.139791,8.7120512,https://ec.europa.eu/clima/ets/ohaDetails.do?accountID=104203&action=all&languageCode=en&registryCode=DE
DE185,"Production of lime, or calcination of dolomite/magnesite",185,Kalkbrennmahlanlage,A,30,14240-0073,ArcelorMittal Eisenhüttenstadt GmbH,2005-01-01,DE,Germany,,,2005,,Werkstraße 1,15890,Eisenhüttenstadt,136510.0,167828.0,155281.0,132638.0,96145.0,133254.0,133444.0,112293.0,122035.0,117430.0,147863.0,130871.0,152537.0,153036.0,142501.0,127174.0,153749.0,,,,,,,,,,52.16117939999999,14.6288292,https://ec.europa.eu/clima/ets/ohaDetails.do?accountID=104205&action=all&languageCode=en&registryCode=DE
DE1364,Combustion of fuels,1364,Dampfkesselanlage Bremen,A,20,14310-0819,ArcelorMittal Bremen GmbH,2005-01-01,DE,Germany,,,2005,,Carl-Benz- Straße 30,28237,Bremen,87444.0,72779.0,82266.0,86478.0,116136.0,101299.0,107403.0,123759.0,141444.0,120792.0,103271.0,82346.0,62586.0,83844.0,83363.0,84813.0,51635.0,,,,,,,,,,53.1409357,8.6834813,https://ec.europa.eu/clima/ets/ohaDetails.do?accountID=104393&action=all&languageCode=en&registryCode=DE
DE44,Production of pig iron or steel,44,Stahlwerk Duisburg,A,24,14220-0007,ArcelorMittal Hochfeld GmbH,2005-01-01,DE,Germany,,,2005,,Vohwinkelstr. 107,47137,Duisburg,264572.0,267586.0,272139.0,257083.0,128827.0,248179.0,237782.0,237189.0,243731.0,206954.0,244505.0,266524.0,221836.0,230041.0,185066.0,197811.0,217057.0,,,,,,,,,,51.4581606,6.743496299999999,https://ec.europa.eu/clima/ets/ohaDetails.do?accountID=105259&action=all&languageCode=en&registryCode=DE
DE45,Production of coke,45,Kokerei Prosper (ohne Kesselhaus),A,22,14220-0008,ArcelorMittal Bremen GmbH,2005-01-01,DE,Germany,,,2005,,Prosperstraße 350,46238,Bottrop,309465.0,359773.0,413877.0,408302.0,263967.0,374692.0,379959.0,340885.0,337902.0,301683.0,323528.0,439947.0,410156.0,396389.0,429798.0,304758.0,309103.0,,,,,,,,,,51.5209626,6.970655,https://ec.europa.eu/clima/ets/ohaDetails.do?accountID=105266&action=all&languageCode=en&registryCode=DE
DE56,Production of pig iron or steel,56,Einheitliche Anlage Stahlwerk Dillinger Hütte,A,24,14220-0019,Aktien-Gesellschaft der Dillinger Hüttenwerke,2005-01-01,DE,Germany,,,2005,,Werkstraße 1,66763,Dillingen,437856.0,423813.0,467673.0,444597.0,328649.0,376035.0,424216.0,396851.0,347786.0,413546.0,415452.0,411923.0,441634.0,407136.0,395140.0,324213.0,400975.0,,,,,,,,,,49.3552761,6.7313863,https://ec.europa.eu/clima/ets/ohaDetails.do?accountID=105336&action=all&languageCode=en&registryCode=DE
DE60,Production of pig iron or steel,60,Einheitliche Anlage Bremen,A,24,14220-0024,ArcelorMittal Bremen GmbH,2005-01-01,DE,Germany,,,2005,,Carl-Benz- Straße 30,28237,Bremen,2582432.0,2854331.0,2984047.0,2032710.0,1869210.0,2245809.0,2104671.0,2101901.0,2467212.0,2446077.0,2809015.0,2619217.0,2544504.0,2621007.0,2177297.0,2348808.0,2267241.0,,,,,,,,,,53.1409357,8.6834813,https://ec.europa.eu/clima/ets/ohaDetails.do?accountID=105381&action=all&languageCode=en&registryCode=DE
DE67,Production of pig iron or steel,67,Elektrostahlwerk,A,24,14220-0033,ArcelorMittal Hamburg GmbH,2005-01-01,DE,Germany,,,2005,,Dradenaustraße 33,21129,Hamburg,79619.0,100849.0,97972.0,88790.0,92880.0,101094.0,96834.0,92292.0,93572.0,90002.0,90164.0,83434.0,84280.0,82889.0,68762.0,74180.0,74526.0,,,,,,,,,,53.5247466,9.900063,https://ec.europa.eu/clima/ets/ohaDetails.do?accountID=105429&action=all&languageCode=en&registryCode=DE
DE1891,Production or processing of ferrous metals,1891,Verzinkungsanlage,A,25,14225-0001,ArcelorMittal Eisenhüttenstadt GmbH,2008-01-01,DE,Germany,,,2008,,Werkstrasse 1,15890,Eisenhüttenstadt,,,,62432.0,53047.0,60559.0,42080.0,44345.0,42775.0,42283.0,45622.0,44386.0,47113.0,47793.0,46650.0,40785.0,46985.0,,,,,,,,,,52.16117939999999,14.6288292,https://ec.europa.eu/clima/ets/ohaDetails.do?accountID=105437&action=all&languageCode=en&registryCode=DE
DE1892,Production or processing of ferrous metals,1892,Warmwalzwerk,A,25,14225-0004,ArcelorMittal Eisenhüttenstadt GmbH,2008-01-01,DE,Germany,,,2008,,Werkstrasse 1,15890,Eisenhüttenstadt,,,,99900.0,76704.0,96644.0,96693.0,99218.0,108608.0,111898.0,107279.0,116551.0,118259.0,125250.0,114543.0,103330.0,112284.0,,,,,,,,,,52.16117939999999,14.6288292,https://ec.europa.eu/clima/ets/ohaDetails.do?accountID=105438&action=all&languageCode=en&registryCode=DE
DE70,Production of pig iron or steel,70,Roheisen-und Stahlerzeugung,A,24,14220-0038,ArcelorMittal Eisenhüttenstadt GmbH,2005-01-01,DE,Germany,,,2005,,Werkstraße 1,15890,Eisenhüttenstadt,1501581.0,1951193.0,1852048.0,1717196.0,1193338.0,1395349.0,1262814.0,991281.0,1190576.0,1413237.0,1621292.0,1462575.0,1546670.0,1446767.0,1473970.0,1501188.0,1701551.0,,,,,,,,,,52.16117939999999,14.6288292,https://ec.europa.eu/clima/ets/ohaDetails.do?accountID=105456&action=all&languageCode=en&registryCode=DE
DE4112,Combustion of fuels,4112,Kesselanlage Kokerei Prosper III,A,20,14310-1464,ArcelorMittal Bremen GmbH,2008-11-01,DE,Germany,,,2008,,Prosperstraße 350,46238,Bottrop,,,,2913.0,30940.0,31274.0,30740.0,31147.0,33391.0,30409.0,31789.0,34300.0,33823.0,34836.0,33622.0,30893.0,30827.0,,,,,,,,,,51.5209626,6.970655,https://ec.europa.eu/clima/ets/ohaDetails.do?accountID=105470&action=all&languageCode=en&registryCode=DE
DE202555,Production or processing of ferrous metals,202555,Drahtwalzwerk Hochfeld,A,25,14226-0033,ArcelorMittal Hochfeld GmbH,2013-01-01,DE,Germany,,,2013,2014.0,Vohwinkeslstrasse 107,47107,Duisburg,,,,,,,,,16744.0,1448.0,,,,,,,,,,,,,,,,,51.4581606,6.743496299999999,https://ec.europa.eu/clima/ets/ohaDetails.do?accountID=108102&action=all&languageCode=en&registryCode=DE
DE202863,Production or processing of ferrous metals,202863,Walzwerk Ruhrort,A,25,14226-0023,ArcelorMittal Hochfeld GmbH,2013-01-01,DE,Germany,,,2013,,Vohwinkelstrasse 107,47137,Duisburg,,,,,,,,,45644.0,42021.0,43313.0,49892.0,42506.0,46175.0,31099.0,20536.0,21791.0,,,,,,,,,,51.4581606,6.743496299999999,https://ec.europa.eu/clima/ets/ohaDetails.do?accountID=108141&action=all&languageCode=en&registryCode=DE
DE204192,Production or processing of ferrous metals,204192,Bregal 1,A,25,14226-0074,ArcelorMittal Bremen GmbH,2013-01-01,DE,Germany,,,2013,,Carl-Benz-Straße 30,28237,Bremen,,,,,,,,,24658.0,26435.0,26488.0,26529.0,26751.0,25557.0,24743.0,20615.0,21995.0,,,,,,,,,,53.1409357,8.6834813,https://ec.europa.eu/clima/ets/ohaDetails.do?accountID=109610&action=all&languageCode=en&registryCode=DE
DE204194,Production or processing of ferrous metals,204194,Kaltwalzwerk,A,25,14226-0038,ArcelorMittal Bremen GmbH,2013-01-01,DE,Germany,,,2013,,Carl-Benz-Straße 30,28237,Bremen,,,,,,,,,18624.0,20317.0,20093.0,21762.0,22968.0,22843.0,19747.0,17229.0,21290.0,,,,,,,,,,53.1409357,8.6834813,https://ec.europa.eu/clima/ets/ohaDetails.do?accountID=109611&action=all&languageCode=en&registryCode=DE
DE204543,Production or processing of ferrous metals,204543,Reduktionsanlage,A,25,14220-0046,ArcelorMittal Hamburg GmbH,2013-01-01,DE,Germany,,,2013,,Dradenaustraße 33,21129,Hamburg,,,,,,,,,252667.0,279937.0,265071.0,290729.0,303834.0,273096.0,235508.0,266025.0,241974.0,,,,,,,,,,53.5247466,9.900063,https://ec.europa.eu/clima/ets/ohaDetails.do?accountID=110087&action=all&languageCode=en&registryCode=DE
DE204544,Production or processing of ferrous metals,204544,Walzwerk,A,25,14226-0080,ArcelorMittal Hamburg GmbH,2013-01-01,DE,Germany,,,2013,,Dradenaustraße 33,21129,Hamburg,,,,,,,,,49086.0,49580.0,48464.0,49222.0,41933.0,44761.0,42552.0,46899.0,49199.0,,,,,,,,,,53.5247466,9.900063,https://ec.europa.eu/clima/ets/ohaDetails.do?accountID=110094&action=all&languageCode=en&registryCode=DE
DE206226,Production or processing of ferrous metals,206226,Drahtwalzwerk Standort Ruhrort,A,25,14226-0094,ArcelorMittal Hochfeld GmbH,2013-01-01,DE,Germany,,,2013,,Vohwinkelstraße 107,47137,Duisburg,,,,,,,,,16622.0,28983.0,32011.0,31611.0,32904.0,31951.0,31854.0,32707.0,33088.0,,,,,,,,,,51.4581606,6.743496299999999,https://ec.europa.eu/clima/ets/ohaDetails.do?accountID=111757&action=all&languageCode=en&registryCode=DE
IT515,Production of pig iron or steel,515,Stabilimento di Taranto,A,24,IT-A-762,Acciaierie d'Italia S.p.A.,2006-04-04,IT,Italy,2018.0,,2005,,"Via APPIA Km 648, SNC",74100,TARANTO,,,,,,,,,,,,,,6069617.0,5898625.0,4834123.0,5246390.0,,,,,,,,,,40.4919978,17.2147064,https://ec.europa.eu/clima/ets/ohaDetails.do?accountID=102266&action=all&languageCode=en&registryCode=IT
IT72,Production or processing of ferrous metals,72,Stabilimento di Novi Ligure,A,25,IT-A-89,Acciaierie d'Italia S.p.A.,2006-04-04,IT,Italy,2018.0,,2005,,"Via Boscomarengo, 1",15067,NOVI LIGURE,,,,,,,,,,,,,,94329.0,78816.0,53894.0,88609.0,,,,,,,,,,44.7726189,8.7673497,https://ec.europa.eu/clima/ets/ohaDetails.do?accountID=102269&action=all&languageCode=en&registryCode=IT
IT86,Production or processing of ferrous metals,86,Stabilimento di Genova Comigliano,A,25,IT-A-106,Acciaierie d'Italia S.p.A.,2006-04-04,IT,Italy,2018.0,,2005,,"Via Pionieri e Aviatori d'Italia, 8",16154,GENOVA,,,,,,,,,,,,,,72831.0,65402.0,55874.0,71899.0,,,,,,,,,,44.4198611,8.8573349,https://ec.europa.eu/clima/ets/ohaDetails.do?accountID=102272&action=all&languageCode=en&registryCode=IT
IT511,Combustion of fuels,511,ArcelorMittal Italy Energy srl,A,20,IT-A-758,AdI Energia S.r.l,2006-04-04,IT,Italy,2019.0,,2005,,"Via Appia Km 648, SNC",74123,TARANTO,,,,,,,,,,,,,,,4351677.0,3442085.0,4405242.0,,,,,,,,,,40.4919978,17.2147064,https://ec.europa.eu/clima/ets/ohaDetails.do?accountID=102989&action=all&languageCode=en&registryCode=IT
IT205245,Combustion of fuels,205245,ArcelorMittal Piombino S.p.A.,A,20,IT-A-2333,LIBERTY MAGONA S.R.L.,2013-01-01,IT,Italy,,2018.0,2013,,Via di Portovecchio 34,57025,Piombino (LI),,,,,,,,,22710.0,27457.0,34053.0,37697.0,39557.0,40082.0,,,,,,,,,,,,,42.9285118,10.5336716,https://ec.europa.eu/clima/ets/ohaDetails.do?accountID=110625&action=all&languageCode=en&registryCode=IT
LU11,Production of pig iron or steel,11,ArcelorMittal Rodange et Schifflange-Site Schiffl,C,24,EQE200511,ArcelorMittal Rodange et Schifflange- Site de Schifflange,2006-06-08,LU,Luxembourg,,,2005,2012.0,"11, Boulevard Aloyse Meyer",4221,Esch/Alzette,44856.0,72306.0,81276.0,68791.0,64250.0,64696.0,47502.0,151.0,,,,,,,,,,,,,,,,,,,49.5073758,5.9901753,https://ec.europa.eu/clima/ets/ohaDetails.do?accountID=103362&action=all&languageCode=en&registryCode=LU
LU12,Production of pig iron or steel,12,ArcelorMittal Belval et Differdange - site Differd,A,24,EQE-2013-12-01,ArcelorMittal Belval et Differdange,2006-06-08,LU,Luxembourg,,,2005,,Rue Emile Mark,4503,Differdange,188622.0,203597.0,175836.0,104504.0,83338.0,113123.0,106035.0,113121.0,177070.0,195614.0,201131.0,196349.0,176085.0,182906.0,168660.0,149635.0,158843.0,,,,,,,,,,49.5227814,5.895576,https://ec.europa.eu/clima/ets/ohaDetails.do?accountID=103363&action=all&languageCode=en&registryCode=LU
LU13,Production of pig iron or steel,13,ArcelorMittal Belval & Differdange-Site de Belval,A,24,EQE-2013-13-01,ArcelorMittal Belval et Differdange,2006-06-08,LU,Luxembourg,,,2005,,Site d'Esch-Belval,4008,Esch/Alzette,126113.0,164930.0,178515.0,49725.0,39208.0,45284.0,59967.0,66267.0,185176.0,196275.0,183931.0,185696.0,200042.0,192504.0,190746.0,177229.0,182441.0,,,,,,,,,,49.4998982,5.9535519,https://ec.europa.eu/clima/ets/ohaDetails.do?accountID=103364&action=all&languageCode=en&registryCode=LU
LU205662,Production or processing of ferrous metals,205662,Dudelange,A,25,EOE-NEW22-2013,Libertysteel Dudelange,2013-01-01,LU,Luxembourg,,2018.0,2013,,ZI wolser,L-3401,dudelange,,,,,,,,,28644.0,28580.0,28300.0,29487.0,29055.0,29354.0,,,,,,,,,,,,,49.5054134,6.089412,https://ec.europa.eu/clima/ets/ohaDetails.do?accountID=110931&action=all&languageCode=en&registryCode=LU
LU205713,Production or processing of ferrous metals,205713,AM Rodange et Schifflange - Site de Rodange,A,25,EQE-2013-21,ArcelorMittal Belval et Differdange,2013-01-01,LU,Luxembourg,,,2013,,2 rue de l'Industrie,L-4823,Rodange,,,,,,,,,18951.0,20490.0,19758.0,19699.0,20389.0,22515.0,16982.0,16664.0,19307.0,,,,,,,,,,49.5512294,5.8424059,https://ec.europa.eu/clima/ets/ohaDetails.do?accountID=111112&action=all&languageCode=en&registryCode=LU
PL659,Combustion of fuels,659,KOTŁOWNIA,A,20,PL-0662-05,ArcelorMittal Warszawa Sp. z o.o.,2005-01-01,PL,Poland,,,2005,,KASPROWICZA 132,01-949,WARSZAWA,14859.0,14678.0,12277.0,11435.0,7833.0,10532.0,10567.0,9557.0,9633.0,8936.0,8871.0,9109.0,8975.0,9261.0,8767.0,8862.0,10332.0,,,,,,,,,,52.2926243,20.9277718,https://ec.europa.eu/clima/ets/ohaDetails.do?accountID=92652&action=all&languageCode=en&registryCode=PL
PL660,Production of pig iron or steel,660,STALOWNIA,A,24,PL-0663-05,ArcelorMittal Warszawa Sp. z o.o.,2005-01-01,PL,Poland,,,2005,,KASPROWICZA 132,01-949,WARSZAWA,47807.0,64007.0,65622.0,67456.0,40229.0,53029.0,61209.0,55635.0,52290.0,49745.0,49516.0,51801.0,62975.0,53890.0,50353.0,48871.0,54484.0,,,,,,,,,,52.2926243,20.9277718,https://ec.europa.eu/clima/ets/ohaDetails.do?accountID=92656&action=all&languageCode=en&registryCode=PL
PL367,Production of coke,367,KOKSOWNIA ARCELORMITTAL KRAKÓW,A,22,PL-0653-05,ArcelorMittal Poland S.A.,2005-01-01,PL,Poland,,,2005,,Ujastek 1,30-969,Kraków,171852.0,201404.0,186511.0,162654.0,74393.0,90960.0,80472.0,79267.0,89450.0,93232.0,95146.0,99131.0,100720.0,96586.0,100668.0,88518.0,115213.0,,,,,,,,,,50.0866911,20.0654551,https://ec.europa.eu/clima/ets/ohaDetails.do?accountID=92847&action=all&languageCode=en&registryCode=PL
PL370,Production of coke,370,KOKSOWNIA ARCELORMITTAL ZDZIESZOWICE,A,22,PL-0656-05,ArcelorMittal Poland S.A.,2005-01-01,PL,Poland,,,2005,,Powstańców Śląskich 1,47-330,Zdzieszowice,1260712.0,1588920.0,1752999.0,1702792.0,1108563.0,1396914.0,1288114.0,1049569.0,973924.0,973927.0,922576.0,871696.0,916272.0,815052.0,533006.0,416596.0,520424.0,,,,,,,,,,50.421521,18.129973,https://ec.europa.eu/clima/ets/ohaDetails.do?accountID=92857&action=all&languageCode=en&registryCode=PL
PL374,Metal ore roasting or sintering,374,SPIEKALNIA ARCELORMITTAL KRAKÓW,A,23,PL-0666-05,ArcelorMittal Poland S.A.,2005-01-01,PL,Poland,,,2005,2017.0,Ujastek 1,30-969,Kraków,1714995.0,1895596.0,1822112.0,527599.0,318931.0,204055.0,270243.0,55893.0,,,,,,,,,,,,,,,,,,,50.0866911,20.0654551,https://ec.europa.eu/clima/ets/ohaDetails.do?accountID=92877&action=all&languageCode=en&registryCode=PL
PL375,Metal ore roasting or sintering,375,SPIEKALNIA ARCELORMITTAL DĄBROWA GÓRNICZA,A,23,PL-0667-05,ArcelorMittal Poland S.A.,2005-01-01,PL,Poland,,,2005,,Al. Piłsudskiego 92,41-308,Dąbrowa Górnicza,3167870.0,4138573.0,4383775.0,1128417.0,832166.0,1240364.0,1293915.0,1463065.0,1524360.0,1665911.0,1682177.0,1525360.0,1566704.0,1614716.0,1517219.0,1068491.0,1278558.0,,,,,,,,,,50.3455295,19.2692339,https://ec.europa.eu/clima/ets/ohaDetails.do?accountID=92881&action=all&languageCode=en&registryCode=PL
PL456,Combustion of fuels,456,ELEKTROCIEPŁOWNIA ARCELORMITTAL ZDZIESZOWICE,A,20,PL-0395-05,ArcelorMittal Poland S.A.,2005-01-01,PL,Poland,,,2005,,Powstańców Śląskich 1,47-330,Zdzieszowice,309659.0,362712.0,371400.0,329510.0,327009.0,354479.0,283569.0,301811.0,308685.0,288549.0,294651.0,282021.0,210979.0,252700.0,246566.0,208409.0,226211.0,,,,,,,,,,50.421521,18.129973,https://ec.europa.eu/clima/ets/ohaDetails.do?accountID=93251&action=all&languageCode=en&registryCode=PL
PL458,Combustion of fuels,458,ELEKTROCIEPŁOWNIA ARCELORMITTAL SOSNOWIEC,A,20,PL-0402-05,ArcelorMittal Poland S.A.,2005-01-01,PL,Poland,,,2005,,NIWECKA 1,42-200,KATOWICE,67323.0,66402.0,66837.0,51985.0,47478.0,52724.0,46777.0,44976.0,45661.0,38685.0,41837.0,39109.0,35011.0,34757.0,30692.0,30669.0,39510.0,,,,,,,,,,50.2650982,19.1527927,https://ec.europa.eu/clima/ets/ohaDetails.do?accountID=93257&action=all&languageCode=en&registryCode=PL
PL846,"Production of lime, or calcination of dolomite/magnesite",846,Piece szybowe do wypału wapna,A,30,PL-0774-05,ArcelorMittal Refractories sp. z o.o.,2005-01-01,PL,Poland,,,2005,2018.0,Ujastek 1,30-969,Kraków,106913.0,128433.0,137506.0,115731.0,45886.0,29735.0,46406.0,5148.0,,,,,,,,,,,,,,,,,,,50.0866911,20.0654551,https://ec.europa.eu/clima/ets/ohaDetails.do?accountID=93267&action=all&languageCode=en&registryCode=PL
PL847,"Production of lime, or calcination of dolomite/magnesite",847,Piec obrotowy do wypalania klinkieru dolomitowego,A,30,PL-0775-05,ArcelorMittal Refractories sp. z o.o.,2005-01-01,PL,Poland,,,2005,,Ujastek 1,30-969,Kraków,51124.0,52455.0,45000.0,36304.0,24877.0,36546.0,28442.0,40635.0,26850.0,20927.0,22197.0,21998.0,34674.0,11934.0,,,,,,,,,,,,,50.0866911,20.0654551,https://ec.europa.eu/clima/ets/ohaDetails.do?accountID=93270&action=all&languageCode=en&registryCode=PL
PL848,Manufacture of ceramics,848,Piece tunelowe do wypalania materiałów ogniotrwały,A,32,PL-0776-05,ArcelorMittal Refractories sp. z o.o.,2005-01-01,PL,Poland,,,2005,,Ujastek 1,30-969,Kraków,11967.0,9703.0,8570.0,9788.0,12865.0,12864.0,13950.0,12743.0,15616.0,16832.0,16501.0,15358.0,15578.0,13669.0,10797.0,9961.0,11047.0,,,,,,,,,,50.0866911,20.0654551,https://ec.europa.eu/clima/ets/ohaDetails.do?accountID=93271&action=all&languageCode=en&registryCode=PL
PL885,Production of pig iron or steel,885,WIELKI PIEC+STALOWNIA ARCELORMITTAL KRAKÓW,A,24,PL-0906-08,ArcelorMittal Poland S.A.,2005-01-01,PL,Poland,,,2008,,Ujastek 1,30-969,Kraków,,,,1586155.0,848321.0,373477.0,649738.0,835041.0,861368.0,915182.0,900184.0,639066.0,1021555.0,916846.0,780574.0,4587.0,2518.0,,,,,,,,,,50.0866911,20.0654551,https://ec.europa.eu/clima/ets/ohaDetails.do?accountID=93404&action=all&languageCode=en&registryCode=PL
PL886,Production of pig iron or steel,886,WIELKI PIEC STALOWNIA ARCELORMITTAL DĄBROWA GÓRN.,A,24,PL-0907-08,ArcelorMittal Poland S.A.,2005-01-01,PL,Poland,,,2008,,J. Piłsudskiego 92,41-308,Dąbrowa Górnicza,,,,3198708.0,1784222.0,2914880.0,2887000.0,2610653.0,2192758.0,2531252.0,2582521.0,2791813.0,2732272.0,2427068.0,2257932.0,2353268.0,2554130.0,,,,,,,,,,50.3455295,19.2692339,https://ec.europa.eu/clima/ets/ohaDetails.do?accountID=93408&action=all&languageCode=en&registryCode=PL
PL887,"Production of lime, or calcination of dolomite/magnesite",887,WAPNIALNIA ARCELORMITTAL DĄBROWA GÓRNICZA,A,30,PL-0908-08,ArcelorMittal Poland S.A.,2005-01-01,PL,Poland,,,2008,,J. Piłsudskiego 92,41-308,Dąbrowa Górnicza,,,,165241.0,111598.0,150694.0,154787.0,174161.0,296153.0,355187.0,353168.0,330849.0,355998.0,343017.0,371022.0,319352.0,337762.0,,,,,,,,,,50.3455295,19.2692339,https://ec.europa.eu/clima/ets/ohaDetails.do?accountID=93411&action=all&languageCode=en&registryCode=PL
PL895,Production or processing of ferrous metals,895,WALCOWNIE,A,25,PL-0916-08,ArcelorMittal Warszawa Sp. z o.o.,2008-01-01,PL,Poland,,,2008,,Kasprowicza 132,01-949,Warszawa,,,,42933.0,22858.0,32097.0,38912.0,34212.0,28700.0,31862.0,34906.0,34988.0,34474.0,33271.0,33850.0,28984.0,31548.0,,,,,,,,,,52.2926243,20.9277718,https://ec.europa.eu/clima/ets/ohaDetails.do?accountID=93436&action=all&languageCode=en&registryCode=PL
PL897,Production or processing of ferrous metals,897,WALCOWNIA ARCELORMITTAL DĄBROWA GÓRNICZA,A,25,PL-0918-08,ArcelorMittal Poland S.A.,2005-01-01,PL,Poland,,,2008,,J. Piłsudskiego 92,41-308,Dąbrowa Górnicza,,,,423870.0,277353.0,303154.0,265086.0,190537.0,217893.0,214951.0,291088.0,268047.0,284594.0,258549.0,235710.0,221111.0,225873.0,,,,,,,,,,50.3455295,19.2692339,https://ec.europa.eu/clima/ets/ohaDetails.do?accountID=93443&action=all&languageCode=en&registryCode=PL
PL898,Production or processing of ferrous metals,898,WALCOWNIA ARCELORMITTAL KRAKÓW,A,25,PL-0919-08,ArcelorMittal Poland S.A.,2005-01-01,PL,Poland,,,2008,,Ujastek 1,30-969,Kraków,,,,158948.0,128644.0,160210.0,164434.0,165959.0,177689.0,186933.0,195135.0,224432.0,244769.0,259109.0,218447.0,181286.0,199502.0,,,,,,,,,,50.0866911,20.0654551,https://ec.europa.eu/clima/ets/ohaDetails.do?accountID=93446&action=all&languageCode=en&registryCode=PL
PL899,Production or processing of ferrous metals,899,WALCOWNIA ARCELORMITTAL SOSNOWIEC,A,25,PL-0920-08,ArcelorMittal Poland S.A.,2005-01-01,PL,Poland,,,2008,,Niwecka  1,41-200,Sosnowiec,,,,34899.0,31159.0,34036.0,34439.0,35954.0,39547.0,43025.0,44669.0,45560.0,46740.0,39171.0,39073.0,42487.0,45742.0,,,,,,,,,,50.2649289,19.153432,https://ec.europa.eu/clima/ets/ohaDetails.do?accountID=93451&action=all&languageCode=en&registryCode=PL
PL900,Production or processing of ferrous metals,900,OBRÓBKA METALI ŻELAZNYCH ARCELORMITTAL ŚWIĘTOCHŁOW,A,25,PL-0921-08,ArcelorMittal Poland S.A.,2008-01-01,PL,Poland,,,2008,,Metalowców 5,41-600,Świętochłowice,,,,27094.0,25467.0,33369.0,33095.0,34732.0,34393.0,37066.0,36040.0,38140.0,38042.0,40280.0,39613.0,37682.0,38431.0,,,,,,,,,,50.2885072,18.9137651,https://ec.europa.eu/clima/ets/ohaDetails.do?accountID=93455&action=all&languageCode=en&registryCode=PL
PL928,Combustion of fuels,928,Walcownia Rur,A,20,PL-0953-08,ArcelorMittal Tubular Products Kraków,2008-01-01,PL,Poland,,,2008,,Ujastek 1,30-969,Kraków,,,,18313.0,16826.0,17816.0,16050.0,16322.0,15309.0,16714.0,15440.0,18141.0,17580.0,18895.0,16620.0,12718.0,13310.0,,,,,,,,,,50.0866911,20.0654551,https://ec.europa.eu/clima/ets/ohaDetails.do?accountID=93536&action=all&languageCode=en&registryCode=PL
PL202611,Production or processing of ferrous metals,202611,Walcownia ArcelorMittal Chorzów,A,25,PL-1019-13,ArcelorMittal Poland S.A.,2013-01-01,PL,Poland,,,2013,,Metalowców 13,41-500,Chorzów,,,,,,,,,8867.0,10550.0,9586.0,9567.0,9571.0,8062.0,7849.0,9003.0,10124.0,,,,,,,,,,50.3047105,18.9588568,https://ec.europa.eu/clima/ets/ohaDetails.do?accountID=107706&action=all&languageCode=en&registryCode=PL
RO43,Production or processing of ferrous metals,43,SC ARCELORMITTAL TUBULAR PRODUCTS ROMAN SA,A,25,126,SC ARCELORMITTAL TUBULAR PRODUCTS Roman SA,2021-04-21,RO,Romania,,,2007,,"Sos. Roman - Iasi, km 333",617135,Roman,,,118299.0,107321.0,47639.0,81416.0,88968.0,88886.0,87095.0,88614.0,46750.0,36254.0,36060.0,37923.0,26815.0,18123.0,21705.0,,,,,,,,,,47.1584549,27.6014418,https://ec.europa.eu/clima/ets/ohaDetails.do?accountID=99664&action=all&languageCode=en&registryCode=RO
RO44,Production of pig iron or steel,44,Liberty Galati SA,A,24,63,SC Liberty Galati SA,2021-02-17,RO,Romania,,2018.0,2007,,Smardan1,800698,Galati,,,9750598.0,7586062.0,3799190.0,4583475.0,4248582.0,3727343.0,3808207.0,3628982.0,4288727.0,4237696.0,3866638.0,4104923.0,,,,,,,,,,,,,45.4353208,28.0079945,https://ec.europa.eu/clima/ets/ohaDetails.do?accountID=99665&action=all&languageCode=en&registryCode=RO
RO45,Production of pig iron or steel,45,ARCELORMITTAL HUNEDOARA SA,A,24,103,SC ARCELORMITTAL HUNEDOARA SA,2021-03-18,RO,Romania,,,2007,,"DJ 687, Nr.4",331111,Hunedoara,,,96994.0,55193.0,22289.0,35171.0,33348.0,43278.0,43808.0,51549.0,50533.0,53448.0,56706.0,52376.0,45314.0,41977.0,48709.0,,,,,,,,,,45.7358552,22.9149899,https://ec.europa.eu/clima/ets/ohaDetails.do?accountID=99666&action=all&languageCode=en&registryCode=RO
ES798,Production or processing of ferrous metals,798,Fábrica de Bergara,A,25,ES192005000938,"ARCELORMITTAL OLABERRÍA-BERGARA, S.L.U.",2005-06-09,ES,Spain,,,2005,,"C/Ibarra, 6",20570,Bergara (Guipúzcoa),50251.0,60536.0,61033.0,49504.0,40325.0,29070.0,12916.0,,23120.0,27671.0,26819.0,28173.0,26902.0,24900.0,22622.0,19079.0,22302.0,,,,,,,,,,43.10433949999999,-2.4241524,https://ec.europa.eu/clima/ets/ohaDetails.do?accountID=98404&action=all&languageCode=en&registryCode=ES
ES801,Production of pig iron or steel,801,Fábrica de Zumarraga,A,24,ES192005000941,"ARCELORMITTAL OLABERRÍA-BERGARA, S.L.U.",2005-06-09,ES,Spain,,,2005,2016.0,Bº ARTIZ S/N,20700,Zumarraga (Guipúzcoa),102164.0,126104.0,96184.0,75991.0,75107.0,81329.0,80974.0,75407.0,73125.0,83263.0,88322.0,19485.0,,,,,,,,,,,,,,,43.085954,-2.3147677,https://ec.europa.eu/clima/ets/ohaDetails.do?accountID=98405&action=all&languageCode=en&registryCode=ES
ES212,Production of pig iron or steel,212,"ARCELORMITTAL ESPAÑA, S.A.",A,24,ES033305000226,"ARCELORMITTAL ESPAÑA, S.A.",2005-06-09,ES,Spain,,,2005,,Factoria Aceralia Avilés,33468,Avilés y Gijón (Asturias),5536780.0,5488949.0,5639976.0,5405474.0,4385832.0,5291346.0,4985828.0,4587154.0,5091744.0,4961301.0,5907100.0,5718833.0,5307741.0,5646785.0,5097167.0,3911930.0,5262482.0,,,,,,,,,,43.5585475,-5.8922372,https://ec.europa.eu/clima/ets/ohaDetails.do?accountID=98603&action=all&languageCode=en&registryCode=ES
ES799,Production of pig iron or steel,799,Fábrica de Olaberria,A,24,ES192005000939,"ARCELORMITTAL OLABERRÍA-BERGARA, S.L.U.",2005-06-09,ES,Spain,,,2005,,"CTRA. NAC. I MADRID-IRÚN, Km 417",20212,Olaberria (Guipúzcoa),116508.0,108726.0,114709.0,93893.0,67107.0,86564.0,95930.0,102263.0,92208.0,101918.0,107130.0,102783.0,105486.0,106687.0,103520.0,96552.0,111009.0,,,,,,,,,,43.2514521,-2.0223881,https://ec.europa.eu/clima/ets/ohaDetails.do?accountID=98749&action=all&languageCode=en&registryCode=ES
ES1039,Production or processing of ferrous metals,1039,"ArcelorMittal España, S.A.-Fáb. Etxebarri",A,25,ES194801001198,"ARCELORMITTAL ESPAÑA, S.A.",2007-04-10,ES,Spain,,,2006,,"EGETIAGA URIBARRI, 34",48450,Etxebarri (Vizcaya),,15899.0,15969.0,17420.0,13919.0,16475.0,14627.0,14791.0,23905.0,22803.0,27105.0,23984.0,27628.0,29437.0,28264.0,25392.0,26752.0,,,,,,,,,,43.24563699999999,-2.8930297,https://ec.europa.eu/clima/ets/ohaDetails.do?accountID=98798&action=all&languageCode=en&registryCode=ES
ES711,Installations for the production of pig iron or steel (primary or secondary fusion) including continuous casting,711,"ArcelorMittal Madrid, S.L.",A,5,ES152805000837,"ARCELORMITTAL MADRID, S.L.",2005-06-09,ES,Spain,,,2005,2012.0,"Ctra. Toledo, Km. 9,200",28021,Madrid (Madrid),62372.0,72612.0,72619.0,70765.0,42553.0,55782.0,43292.0,,,,,,,,,,,,,,,,,,,,40.3479954,-3.7229276,https://ec.europa.eu/clima/ets/ohaDetails.do?accountID=99135&action=all&languageCode=en&registryCode=ES
ES802,Production of pig iron or steel,802,"Arcelormittal Sestao, S.L.U",A,24,ES194805000942,"ARCELORMITTAL SESTAO, S.L.U.",2005-06-09,ES,Spain,,,2005,,"C/ CHAVARRI, 6",48910,Sestao (Vizcaya),173337.0,259189.0,279206.0,243295.0,168184.0,230288.0,165047.0,53307.0,117709.0,115885.0,105411.0,21973.0,57671.0,63691.0,56894.0,39377.0,104879.0,,,,,,,,,,43.313433,-3.0109258,https://ec.europa.eu/clima/ets/ohaDetails.do?accountID=99157&action=all&languageCode=en&registryCode=ES
ES988,Production or processing of ferrous metals,988,"ARCELORMITTAL ESPAÑA, S.A.",A,25,ES104601001147,"ARCELORMITTAL ESPAÑA, S.A.",2007-04-10,ES,Spain,,,2006,,"Carretera Acceso IV, Planta p.km. 3,9",46520,Sagunto  (Valencia),,15882.0,16334.0,13440.0,8919.0,11557.0,10693.0,10471.0,65766.0,71802.0,71519.0,77245.0,74607.0,76130.0,70258.0,54766.0,67291.0,,,,,,,,,,39.4826443,-0.3751665,https://ec.europa.eu/clima/ets/ohaDetails.do?accountID=99449&action=all&languageCode=en&registryCode=ES
ES205568,Production or processing of ferrous metals,205568,"ArcelorMittal Lesaka, S.A.",A,25,ES18310610653,"ARCELORMITTAL ESPAÑA, S.A.",2011-06-21,ES,Spain,,,2013,,"Arratzubi, 5",31770,Lesaka,,,,,,,,,19253.0,20556.0,19678.0,19773.0,20317.0,20654.0,19903.0,16614.0,20542.0,,,,,,,,,,43.2473876,-1.7021937,https://ec.europa.eu/clima/ets/ohaDetails.do?accountID=110795&action=all&languageCode=en&registryCode=ES
